[{"OBJECT_NAME":"COSMOS 2251 DEB","OBJECT_ID":"1993-036KM","EPOCH":"2026-03-03T01:03:34.641216","MEAN_MOTION":14.53598028,"ECCENTRICITY":0.0008724,"INCLINATION":74.0417,"RA_OF_ASC_NODE":31.2195,"ARG_OF_PERICENTER":92.1863,"MEAN_ANOMALY":341.2805,"EPHEMERIS_TYPE":0,"CLASSIFICATION_TYPE":"U","NORAD_CAT_ID":34116,"ELEMENT_SET_NO":999,"REV_AT_EPOCH":89653,"BSTAR":0.00097957,"MEAN_MOTION_DOT":4.07e-5,"MEAN_MOTION_DDOT":0},{"OBJECT_NAME":"COSMOS 2251 DEB","OBJECT_ID":"1993-036KN","EPOCH":"2026-03-03T00:41:04.839072","MEAN_MOTION":14.40397817,"ECCENTRICITY":0.0057167,"INCLINATION":74.0396,"RA_OF_ASC_NODE":195.4424,"ARG_OF_PERICENTER":254.0692,"MEAN_ANOMALY":105.4159,"EPHEMERIS_TYPE":0,"CLASSIFICATION_TYPE":"U","NORAD_CAT_ID":34117,"ELEMENT_SET_NO":999,"REV_AT_EPOCH":89279,"BSTAR":0.0008782,"MEAN_MOTION_DOT":2.817e-5,"MEAN_MOTION_DDOT":0},{"OBJECT_NAME":"COSMOS 2251 DEB","OBJECT_ID":"1993-036KP","EPOCH":"2026-03-03T04:40:18.540192","MEAN_MOTION":14.97664362,"ECCENTRICITY":0.0062257,"INCLINATION":73.9489,"RA_OF_ASC_NODE":86.0301,"ARG_OF_PERICENTER":258.4499,"MEAN_ANOMALY":175.4082,"EPHEMERIS_TYPE":0,"CLASSIFICATION_TYPE":"U","NORAD_CAT_ID":34118,"ELEMENT_SET_NO":999,"REV_AT_EPOCH":90379,"BSTAR":0.0020339,"MEAN_MOTION_DOT":0.00024826,"MEAN_MOTION_DDOT":0},{"OBJECT_NAME":"COSMOS 2251 DEB","OBJECT_ID":"1993-036KR","EPOCH":"2026-03-03T02:34:37.939584","MEAN_MOTION":13.98777327,"ECCENTRICITY":0.0184605,"INCLINATION":73.9898,"RA_OF_ASC_NODE":76.9933,"ARG_OF_PERICENTER":247.462,"MEAN_ANOMALY":169.999,"EPHEMERIS_TYPE":0,"CLASSIFICATION_TYPE":"U","NORAD_CAT_ID":34120,"ELEMENT_SET_NO":999,"REV_AT_EPOCH":87104,"BSTAR":0.00032448,"MEAN_MOTION_DOT":5.15e-6,"MEAN_MOTION_DDOT":0},{"OBJECT_NAME":"COSMOS 2251 DEB","OBJECT_ID":"1993-036KS","EPOCH":"2026-03-03T04:17:14.935776","MEAN_MOTION":13.92263584,"ECCENTRICITY":0.0239158,"INCLINATION":73.9929,"RA_OF_ASC_NODE":319.282,"ARG_OF_PERICENTER":147.7437,"MEAN_ANOMALY":5.9771,"EPHEMERIS_TYPE":0,"CLASSIFICATION_TYPE":"U","NORAD_CAT_ID":34121,"ELEMENT_SET_NO":999,"REV_AT_EPOCH":86244,"BSTAR":0.0010909,"MEAN_MOTION_DOT":1.746e-5,"MEAN_MOTION_DDOT":0},{"OBJECT_NAME":"COSMOS 2251 DEB","OBJECT_ID":"1993-036KT","EPOCH":"2026-03-03T04:29:42.168768","MEAN_MOTION":14.66268064,"ECCENTRICITY":0.0083796,"INCLINATION":74.038,"RA_OF_ASC_NODE":323.7077,"ARG_OF_PERICENTER":200.8824,"MEAN_ANOMALY":288.1993,"EPHEMERIS_TYPE":0,"CLASSIFICATION_TYPE":"U","NORAD_CAT_ID":34122,"ELEMENT_SET_NO":999,"REV_AT_EPOCH":89863,"BSTAR":0.00096756,"MEAN_MOTION_DOT":5.591e-5,"MEAN_MOTION_DDOT":0},{"OBJECT_NAME":"COSMOS 2251 DEB","OBJECT_ID":"1993-036KY","EPOCH":"2026-03-03T00:02:00.640320","MEAN_MOTION":14.32319136,"ECCENTRICITY":0.0112516,"INCLINATION":74.1757,"RA_OF_ASC_NODE":258.7198,"ARG_OF_PERICENTER":75.3026,"MEAN_ANOMALY":49.0159,"EPHEMERIS_TYPE":0,"CLASSIFICATION_TYPE":"U","NORAD_CAT_ID":34127,"ELEMENT_SET_NO":999,"REV_AT_EPOCH":87920,"BSTAR":0.0013277,"MEAN_MOTION_DOT":3.823e-5,"MEAN_MOTION_DDOT":0},{"OBJECT_NAME":"COSMOS 2251 DEB","OBJECT_ID":"1993-036KZ","EPOCH":"2026-03-02T15:48:53.032032","MEAN_MOTION":15.07233932,"ECCENTRICITY":0.0028379,"INCLINATION":73.9959,"RA_OF_ASC_NODE":132.9652,"ARG_OF_PERICENTER":240.9077,"MEAN_ANOMALY":242.1411,"EPHEMERIS_TYPE":0,"CLASSIFICATION_TYPE":"U","NORAD_CAT_ID":34128,"ELEMENT_SET_NO":999,"REV_AT_EPOCH":90368,"BSTAR":0.0025522,"MEAN_MOTION_DOT":0.00038993,"MEAN_MOTION_DDOT":0},{"OBJECT_NAME":"COSMOS 2251 DEB","OBJECT_ID":"1993-036LA","EPOCH":"2026-03-02T18:24:56.147328","MEAN_MOTION":14.77367603,"ECCENTRICITY":0.00347498,"INCLINATION":74.0351,"RA_OF_ASC_NODE":182.7282,"ARG_OF_PERICENTER":249.0826,"MEAN_ANOMALY":110.6628,"EPHEMERIS_TYPE":0,"CLASSIFICATION_TYPE":"U","NORAD_CAT_ID":34129,"ELEMENT_SET_NO":999,"REV_AT_EPOCH":62479,"BSTAR":0.0017585981,"MEAN_MOTION_DOT":0.00012618,"MEAN_MOTION_DDOT":0},{"OBJECT_NAME":"COSMOS 2251 DEB","OBJECT_ID":"1993-036LH","EPOCH":"2026-03-02T23:00:31.920192","MEAN_MOTION":14.80732079,"ECCENTRICITY":0.0085839,"INCLINATION":74.0172,"RA_OF_ASC_NODE":244.3407,"ARG_OF_PERICENTER":345.1293,"MEAN_ANOMALY":140.1834,"EPHEMERIS_TYPE":0,"CLASSIFICATION_TYPE":"U","NORAD_CAT_ID":34136,"ELEMENT_SET_NO":999,"REV_AT_EPOCH":91197,"BSTAR":0.00040448,"MEAN_MOTION_DOT":3.28e-5,"MEAN_MOTION_DDOT":0},{"OBJECT_NAME":"COSMOS 2251 DEB","OBJECT_ID":"1993-036LL","EPOCH":"2026-03-03T04:06:58.121856","MEAN_MOTION":14.60513203,"ECCENTRICITY":0.0039025,"INCLINATION":74.0289,"RA_OF_ASC_NODE":100.581,"ARG_OF_PERICENTER":159.9332,"MEAN_ANOMALY":257.975,"EPHEMERIS_TYPE":0,"CLASSIFICATION_TYPE":"U","NORAD_CAT_ID":34139,"ELEMENT_SET_NO":999,"REV_AT_EPOCH":89323,"BSTAR":0.0011223,"MEAN_MOTION_DOT":5.479e-5,"MEAN_MOTION_DDOT":0},{"OBJECT_NAME":"COSMOS 2251 DEB","OBJECT_ID":"1993-036LN","EPOCH":"2026-03-02T22:50:44.323296","MEAN_MOTION":14.50390436,"ECCENTRICITY":0.0049427,"INCLINATION":74.0076,"RA_OF_ASC_NODE":238.0278,"ARG_OF_PERICENTER":304.6478,"MEAN_ANOMALY":182.7138,"EPHEMERIS_TYPE":0,"CLASSIFICATION_TYPE":"U","NORAD_CAT_ID":34141,"ELEMENT_SET_NO":999,"REV_AT_EPOCH":88856,"BSTAR":0.0017928,"MEAN_MOTION_DOT":7.089e-5,"MEAN_MOTION_DDOT":0},{"OBJECT_NAME":"COSMOS 2251 DEB","OBJECT_ID":"1993-036LQ","EPOCH":"2026-03-03T04:08:09.758688","MEAN_MOTION":14.65757143,"ECCENTRICITY":0.005119,"INCLINATION":74.012,"RA_OF_ASC_NODE":151.5629,"ARG_OF_PERICENTER":284.1414,"MEAN_ANOMALY":75.4069,"EPHEMERIS_TYPE":0,"CLASSIFICATION_TYPE":"U","NORAD_CAT_ID":34270,"ELEMENT_SET_NO":999,"REV_AT_EPOCH":90274,"BSTAR":0.00082039,"MEAN_MOTION_DOT":4.529e-5,"MEAN_MOTION_DDOT":0},{"OBJECT_NAME":"COSMOS 2251 DEB","OBJECT_ID":"1993-036LR","EPOCH":"2026-03-03T00:59:09.609216","MEAN_MOTION":14.73227645,"ECCENTRICITY":0.001273,"INCLINATION":74.0191,"RA_OF_ASC_NODE":42.981,"ARG_OF_PERICENTER":81.1168,"MEAN_ANOMALY":348.2853,"EPHEMERIS_TYPE":0,"CLASSIFICATION_TYPE":"U","NORAD_CAT_ID":34271,"ELEMENT_SET_NO":999,"REV_AT_EPOCH":89416,"BSTAR":0.002549,"MEAN_MOTION_DOT":0.0001649,"MEAN_MOTION_DDOT":0},{"OBJECT_NAME":"COSMOS 2251 DEB","OBJECT_ID":"1993-036LT","EPOCH":"2026-03-02T19:06:58.468320","MEAN_MOTION":14.62053692,"ECCENTRICITY":0.0012808,"INCLINATION":74.0353,"RA_OF_ASC_NODE":294.2561,"ARG_OF_PERICENTER":33.149,"MEAN_ANOMALY":89.4974,"EPHEMERIS_TYPE":0,"CLASSIFICATION_TYPE":"U","NORAD_CAT_ID":34273,"ELEMENT_SET_NO":999,"REV_AT_EPOCH":89791,"BSTAR":0.0008464528,"MEAN_MOTION_DOT":4.227e-5,"MEAN_MOTION_DDOT":0},{"OBJECT_NAME":"COSMOS 2251 DEB","OBJECT_ID":"1993-036LU","EPOCH":"2026-03-03T01:33:05.030784","MEAN_MOTION":14.65859561,"ECCENTRICITY":0.0021012,"INCLINATION":74.0013,"RA_OF_ASC_NODE":273.6725,"ARG_OF_PERICENTER":39.5577,"MEAN_ANOMALY":121.8404,"EPHEMERIS_TYPE":0,"CLASSIFICATION_TYPE":"U","NORAD_CAT_ID":34274,"ELEMENT_SET_NO":999,"REV_AT_EPOCH":89852,"BSTAR":0.0010119,"MEAN_MOTION_DOT":5.519e-5,"MEAN_MOTION_DDOT":0}]
