COSMOS 2251 DEB         
1 34116U 93036KM  26062.04415094  .00004070  00000+0  97957-3 0  9999
2 34116  74.0417  31.2195 0008724  92.1863 341.2805 14.53598028896530
COSMOS 2251 DEB         
1 34117U 93036KN  26062.02852823  .00002817  00000+0  87820-3 0  9998
2 34117  74.0396 195.4424 0057167 254.0692 105.4159 14.40397817892794
COSMOS 2251 DEB         
1 34118U 93036KP  26062.19465903  .00024826  00000+0  20339-2 0  9991
2 34118  73.9489  86.0301 0062257 258.4499 175.4082 14.97664362903793
COSMOS 2251 DEB         
1 34120U 93036KR  26062.10738356  .00000515  00000+0  32448-3 0  9994
2 34120  73.9898  76.9933 0184605 247.4620 169.9990 13.98777327871049
COSMOS 2251 DEB         
1 34121U 93036KS  26062.17864509  .00001746  00000+0  10909-2 0  9996
2 34121  73.9929 319.2820 0239158 147.7437   5.9771 13.92263584862444
COSMOS 2251 DEB         
1 34122U 93036KT  26062.18729362  .00005591  00000+0  96756-3 0  9992
2 34122  74.0380 323.7077 0083796 200.8824 288.1993 14.66268064898639
COSMOS 2251 DEB         
1 34127U 93036KY  26062.00139630  .00003823  00000+0  13277-2 0  9993
2 34127  74.1757 258.7198 0112516  75.3026  49.0159 14.32319136879206
COSMOS 2251 DEB         
1 34128U 93036KZ  26061.65894713  .00038993  00000+0  25522-2 0  9996
2 34128  73.9959 132.9652 0028379 240.9077 242.1411 15.07233932903684
COSMOS 2251 DEB         
1 34129U 93036LA  26061.76731652  .00012618  00000+0  17586-2 0  9998
2 34129  74.0351 182.7282 0034749 249.0826 110.6628 14.77367603624795
COSMOS 2251 DEB         
1 34136U 93036LH  26061.95870278  .00003280  00000+0  40448-3 0  9994
2 34136  74.0172 244.3407 0085839 345.1293 140.1834 14.80732079911973
COSMOS 2251 DEB         
1 34139U 93036LL  26062.17150604  .00005479  00000+0  11223-2 0  9996
2 34139  74.0289 100.5810 0039025 159.9332 257.9750 14.60513203893233
COSMOS 2251 DEB         
1 34141U 93036LN  26061.95190189  .00007089  00000+0  17928-2 0  9993
2 34141  74.0076 238.0278 0049427 304.6478 182.7138 14.50390436888567
COSMOS 2251 DEB         
1 34270U 93036LQ  26062.17233517  .00004529  00000+0  82039-3 0  9996
2 34270  74.0120 151.5629 0051190 284.1414  75.4069 14.65757143902747
COSMOS 2251 DEB         
1 34271U 93036LR  26062.04108344  .00016490  00000+0  25490-2 0  9999
2 34271  74.0191  42.9810 0012730  81.1168 348.2853 14.73227645894165
COSMOS 2251 DEB         
1 34273U 93036LT  26061.79651005  .00004227  00000+0  84645-3 0  9992
2 34273  74.0353 294.2561 0012808  33.1490  89.4974 14.62053692897914
COSMOS 2251 DEB         
1 34274U 93036LU  26062.06464156  .00005519  00000+0  10119-2 0  9992
2 34274  74.0013 273.6725 0021012  39.5577 121.8404 14.65859561898523
